      2.10          N: GNSS NAV DATA                        RINEX VERSION / TYPE
fic2rin                                 01/01/2019 17:03:17 PGM / RUN BY / DATE
                                                            END OF HEADER
19 18 12 31 10  0  0.0-3.682803362608e-04 3.979039320257e-12 0.000000000000e+00
    3.700000000000e+01-7.387500000000e+01 3.967308111450e-09 1.908211116927e+00
   -3.930181264877e-06 9.386298595928e-03 9.300187230110e-06 5.153619890213e+03
    1.224000000000e+05 9.313225746155e-09-1.301449654899e+00-2.216547727585e-07
    9.812714000640e-01 2.106562500000e+02 1.327891429585e+00-7.772823769309e-09
   -6.071681481333e-11 1.000000000000e+00 2.034000000000e+03 0.000000000000e+00
    2.400000000000e+00 0.000000000000e+00-1.536682248116e-08 3.700000000000e+01
    1.152060000000e+05 4.000000000000e+00
11 18 12 31 10  0  0.0-6.817090325058e-04 5.002220859751e-12 0.000000000000e+00
    4.500000000000e+01-2.206250000000e+01 5.512372469582e-09 2.574206167094e+00
   -1.210719347000e-06 1.662363391370e-02 9.207054972649e-06 5.153680936813e+03
    1.224000000000e+05 2.067536115646e-07-7.886727124127e-01 1.862645149231e-08
    9.080380589499e-01 1.700312500000e+02 1.852240190130e+00-8.259272603284e-09
    1.432202514126e-10 1.000000000000e+00 2.034000000000e+03 0.000000000000e+00
    2.400000000000e+00 0.000000000000e+00-1.210719347000e-08 4.500000000000e+01
    1.152060000000e+05 4.000000000000e+00
12 18 12 31 10  0  0.0 2.801734954119e-04-3.069544618484e-12 0.000000000000e+00
    4.300000000000e+01 1.262500000000e+01 4.142672558940e-09 1.956651210628e+00
    5.494803190231e-07 7.230983348563e-03 3.594905138016e-06 5.153722084045e+03
    1.224000000000e+05-6.146728992462e-08-2.381932892403e+00-9.872019290924e-08
    9.845130758471e-01 3.223125000000e+02 1.022435275710e+00-8.119266771480e-09
   -1.964367538078e-11 1.000000000000e+00 2.034000000000e+03 0.000000000000e+00
    2.400000000000e+00 0.000000000000e+00-1.257285475731e-08 4.300000000000e+01
    1.152060000000e+05 4.000000000000e+00
10 18 12 31 10  0  0.0 1.433417201042e-04-6.025402399246e-12 0.000000000000e+00
    3.800000000000e+01-1.940625000000e+01 4.921633577222e-09 1.268119231582e+00
   -8.624047040939e-07 4.160642158240e-03 5.839392542839e-06 5.153660289764e+03
    1.224000000000e+05 8.754432201385e-08 6.914144513872e-01 4.842877388000e-08
    9.621116541436e-01 2.678750000000e+02-2.799140900460e+00-8.342133197618e-09
   -5.250218692682e-11 1.000000000000e+00 2.034000000000e+03 0.000000000000e+00
    2.400000000000e+00 0.000000000000e+00 1.862645149231e-09 3.800000000000e+01
    1.152060000000e+05 4.000000000000e+00
14 18 12 31 10  0  0.0-9.387126192451e-05 5.684341886081e-13 0.000000000000e+00
    8.600000000000e+01-2.531250000000e+00 4.502330397276e-09-1.093686305773e+00
   -1.229345798492e-07 1.001684530638e-02 9.778887033463e-06 5.153660646439e+03
    1.224000000000e+05 2.793967723846e-08 1.819389742920e+00 2.812594175339e-07
    9.602914212494e-01 1.935312500000e+02-1.948076850272e+00-8.046049435969e-09
   -4.021596087048e-10 1.000000000000e+00 2.034000000000e+03 0.000000000000e+00
    2.400000000000e+00 0.000000000000e+00-9.778887033463e-09 8.600000000000e+01
    1.152060000000e+05 4.000000000000e+00
17 18 12 31 10  0  0.0-1.120055094361e-05 5.229594535194e-12 0.000000000000e+00
    9.100000000000e+01-6.190625000000e+01 4.041954077897e-09-8.680560192289e-01
   -3.058463335037e-06 1.300405303482e-02 9.281560778618e-06 5.153672090530e+03
    1.224000000000e+05-1.564621925354e-07-1.348011481746e+00 1.657754182816e-07
    9.835489162802e-01 2.168125000000e+02-1.741706161121e+00-8.044263647298e-09
   -5.928818387655e-11 1.000000000000e+00 2.034000000000e+03 0.000000000000e+00
    3.400000000000e+00 0.000000000000e+00-1.117587089539e-08 9.100000000000e+01
    1.152060000000e+05 4.000000000000e+00
 9 18 12 31 10  0  0.0 4.772515967488e-04-4.320099833421e-12 0.000000000000e+00
    4.800000000000e+01-4.437500000000e+00 4.655551065246e-09-4.295379702434e-01
   -3.352761268616e-07 1.470083021559e-03 1.041591167450e-05 5.153764377594e+03
    1.224000000000e+05-5.587935447693e-09 1.727758890333e+00 1.490116119385e-08
    9.521345806385e-01 1.731875000000e+02 1.681206392514e+00-8.037120492614e-09
   -3.782300405137e-10 1.000000000000e+00 2.034000000000e+03 0.000000000000e+00
    2.400000000000e+00 0.000000000000e+00 1.396983861923e-09 4.800000000000e+01
    1.152060000000e+05 4.000000000000e+00
31 18 12 31 10  0  0.0 6.906222552061e-05-2.614797267597e-12 0.000000000000e+00
    4.800000000000e+01 8.662500000000e+01 4.358395830395e-09 2.245120698540e+00
    4.597008228302e-06 9.164241491817e-03 8.685514330864e-06 5.153813278198e+03
    1.224000000000e+05-9.872019290924e-08 2.817905888177e+00 1.229345798492e-07
    9.615130968228e-01 2.155625000000e+02-4.391490626069e-02-7.966403261244e-09
    1.035757429169e-11 1.000000000000e+00 2.034000000000e+03 0.000000000000e+00
    2.400000000000e+00 0.000000000000e+00-1.350417733192e-08 4.800000000000e+01
    1.152060000000e+05 4.000000000000e+00
24 18 12 31 10  0  0.0-6.019882857800e-05-4.547473508865e-13 0.000000000000e+00
    1.180000000000e+02 8.500000000000e+01 4.782699218620e-09-2.684761181662e+00
    4.375353455544e-06 7.990339305252e-03 9.182840585709e-06 5.153740058899e+03
    1.224000000000e+05-7.450580596924e-09 2.741054877927e+00-1.266598701477e-07
    9.399970272892e-01 1.912500000000e+02 5.719820754065e-01-8.126052768429e-09
    1.567922453121e-10 1.000000000000e+00 2.034000000000e+03 0.000000000000e+00
    3.400000000000e+00 0.000000000000e+00 2.793967723846e-09 1.180000000000e+02
    1.152060000000e+05 4.000000000000e+00
21 18 12 31 10  0  0.0-2.776510082185e-04 6.821210263297e-12 0.000000000000e+00
    1.020000000000e+02-1.843750000000e+01 4.836272878749e-09 1.517076462267e+00
   -1.348555088043e-06 2.465271297842e-02 8.799135684967e-06 5.153564146042e+03
    1.224000000000e+05 1.098960638046e-07-4.077304406152e-01-6.966292858124e-07
    9.469234513912e-01 2.046875000000e+02-1.498785138166e+00-8.156411175836e-09
    4.093027633887e-10 1.000000000000e+00 2.034000000000e+03 0.000000000000e+00
    2.400000000000e+00 0.000000000000e+00-9.778887033463e-09 1.020000000000e+02
    1.152060000000e+05 4.000000000000e+00
26 18 12 31 10  0  0.0 8.313870057464e-05 1.068656274583e-11 0.000000000000e+00
    6.600000000000e+01 2.253125000000e+01 4.806628786811e-09 9.994558024087e-01
    1.205131411552e-06 3.458243212663e-03 3.138557076454e-06 5.153776638031e+03
    1.224000000000e+05 2.980232238770e-08-2.470296570545e+00 1.117587089539e-08
    9.534606046956e-01 3.129687500000e+02 7.466098823841e-02-8.469995666460e-09
   -5.571660653459e-11 1.000000000000e+00 2.034000000000e+03 0.000000000000e+00
    2.400000000000e+00 0.000000000000e+00 7.450580596924e-09 6.600000000000e+01
    1.152060000000e+05 4.000000000000e+00
29 18 12 31 10  0  0.0 3.036800771952e-04-8.185452315956e-12 0.000000000000e+00
    3.900000000000e+01-6.878125000000e+01 3.940164123651e-09-1.715996396995e-01
   -3.758817911148e-06 6.162433419377e-04 8.044764399529e-06 5.153584562302e+03
    1.224000000000e+05-7.450580596924e-09-1.337092681060e+00 9.313225746155e-09
    9.849420078167e-01 2.399375000000e+02 1.556683480012e+00-7.826754587173e-09
   -6.321691895271e-11 1.000000000000e+00 2.034000000000e+03 0.000000000000e+00
    3.400000000000e+00 0.000000000000e+00-1.024454832077e-08 3.900000000000e+01
    1.152060000000e+05 4.000000000000e+00
24 18 12 31  9 59 44.0-6.019929423928e-05-4.547473508865e-13 0.000000000000e+00
    2.300000000000e+01 8.500000000000e+01 4.782699218620e-09-2.687095696093e+00
    4.375353455544e-06 7.990339421667e-03 9.182840585709e-06 5.153740055084e+03
    1.223840000000e+05-7.450580596924e-09 2.741054983257e+00-1.266598701477e-07
    9.399970302151e-01 1.912500000000e+02 5.719830043594e-01-8.125695610695e-09
    1.571494030463e-10 1.000000000000e+00 2.034000000000e+03 0.000000000000e+00
    2.400000000000e+00 0.000000000000e+00 2.793967723846e-09 2.300000000000e+01
    1.165260000000e+05 4.000000000000e+00
 1 18 12 31  9 59 44.0-1.375721767545e-04-6.139089236967e-12 0.000000000000e+00
    8.000000000000e+00 2.062500000000e+00 4.228390415147e-09-3.034956694151e+00
    1.490116119385e-08 8.236194844358e-03 8.989125490189e-06 5.153661256790e+03
    1.223840000000e+05-5.587935447693e-08-3.474987458947e-01-7.450580596924e-08
    9.741734195589e-01 2.133750000000e+02 6.908612562301e-01-7.753180093929e-09
    4.218032840856e-10 1.000000000000e+00 2.034000000000e+03 0.000000000000e+00
    2.400000000000e+00 0.000000000000e+00 5.587935447693e-09 8.000000000000e+00
    1.166460000000e+05 4.000000000000e+00
 6 18 12 31  9 59 44.0 3.061196766794e-04-7.275957614183e-12 0.000000000000e+00
    9.000000000000e+00-7.218750000000e+00 4.319465637367e-09-2.723135932308e+00
   -2.682209014893e-07 1.287936232984e-03 9.041279554367e-06 5.153768003464e+03
    1.223840000000e+05 2.793967723846e-08-3.557925200266e-01 5.029141902924e-08
    9.738486122465e-01 2.121875000000e+02-1.220994879086e+00-7.881042562771e-09
    4.443042213399e-10 1.000000000000e+00 2.034000000000e+03 0.000000000000e+00
    2.400000000000e+00 0.000000000000e+00 4.656612873077e-09 9.000000000000e+00
    1.204860000000e+05 4.000000000000e+00
 7 18 12 31  9 59 44.0 6.048707291484e-05-7.048583938740e-12 0.000000000000e+00
    1.400000000000e+01 9.675000000000e+01 4.473043463072e-09 2.617620519842e+00
    4.876405000687e-06 1.211524242535e-02 8.398666977882e-06 5.153624874115e+03
    1.223840000000e+05-1.490116119385e-08 2.804468568687e+00-1.955777406693e-07
    9.569135287751e-01 2.147500000000e+02-2.479614232263e+00-7.934616222900e-09
    1.807218135032e-10 1.000000000000e+00 2.034000000000e+03 0.000000000000e+00
    2.400000000000e+00 0.000000000000e+00-1.117587089539e-08 1.400000000000e+01
    1.205460000000e+05 4.000000000000e+00
